[{"OBJECT_NAME":"SHIJIAN-15 (SJ-15)","OBJECT_ID":"2013-037C","EPOCH":"2026-03-09T22:45:08.192736","MEAN_MOTION":14.71357626,"ECCENTRICITY":0.0007545,"INCLINATION":98.1055,"RA_OF_ASC_NODE":72.3692,"ARG_OF_PERICENTER":101.5082,"MEAN_ANOMALY":258.6973,"EPHEMERIS_TYPE":0,"CLASSIFICATION_TYPE":"U","NORAD_CAT_ID":39210,"ELEMENT_SET_NO":999,"REV_AT_EPOCH":67973,"BSTAR":0.00018012312,"MEAN_MOTION_DOT":1.064e-5,"MEAN_MOTION_DDOT":0},{"OBJECT_NAME":"NOAA 16 DEB","OBJECT_ID":"2000-055RS","EPOCH":"2026-03-09T07:59:02.761440","MEAN_MOTION":14.73662317,"ECCENTRICITY":0.00068262,"INCLINATION":98.8474,"RA_OF_ASC_NODE":211.1901,"ARG_OF_PERICENTER":302.1036,"MEAN_ANOMALY":57.9506,"EPHEMERIS_TYPE":0,"CLASSIFICATION_TYPE":"U","NORAD_CAT_ID":42374,"ELEMENT_SET_NO":999,"REV_AT_EPOCH":51402,"BSTAR":0.0063333394,"MEAN_MOTION_DOT":0.00041508,"MEAN_MOTION_DDOT":0}]
